IRIDIUM 119             
1 42959U 17061E   24095.46313777  .00000199  00000+0  64110-4 0  9996
2 42959  86.4029   1.1275 0002365  88.1915 271.9552 14.34218561339612
IRIDIUM 107             
1 42960U 17061F   24095.48218006  .00000512  00000+0  17570-3 0  9995
2 42960  86.4026   1.1361 0002452  84.1273 276.0202 14.34219593339622
IRIDIUM 136             
1 42962U 17061H   24095.45044877  .00000282  00000+0  93628-4 0  9990
2 42962  86.4029   1.1371 0002250  93.0415 267.1038 14.34218196339638
IRIDIUM 125             
1 42964U 17061K   24095.44410592  .00000265  00000+0  87600-4 0  9996
2 42964  86.4032   1.2350 0002479  90.4423 269.7057 14.34215830339658
IRIDIUM 135             
1 43070U 17083A   24095.62753845  .00000115  00000+0  33941-4 0  9993
2 43070  86.3921 297.8473 0001888  79.2854 280.8554 14.34214203328970
IRIDIUM 138             
1 43071U 17083B   24095.30407965  .00000120  00000+0  35624-4 0  9994
2 43071  86.3909 297.7091 0002343  94.2095 265.9368 14.34211519328911
